[{"OBJECT_NAME":"UNISAT-6","OBJECT_ID":"2014-033C","EPOCH":"2026-03-28T23:26:26.405664","MEAN_MOTION":14.87763111,"ECCENTRICITY":0.0044633,"INCLINATION":97.7762,"RA_OF_ASC_NODE":242.1733,"ARG_OF_PERICENTER":334.3057,"MEAN_ANOMALY":25.5942,"EPHEMERIS_TYPE":0,"CLASSIFICATION_TYPE":"U","NORAD_CAT_ID":40012,"ELEMENT_SET_NO":999,"REV_AT_EPOCH":63423,"BSTAR":0.00040616,"MEAN_MOTION_DOT":3.718e-5,"MEAN_MOTION_DDOT":0},{"OBJECT_NAME":"DUCHIFAT-1","OBJECT_ID":"2014-033M","EPOCH":"2026-03-29T02:51:15.519168","MEAN_MOTION":15.52278318,"ECCENTRICITY":0.0003732,"INCLINATION":98.0602,"RA_OF_ASC_NODE":136.8704,"ARG_OF_PERICENTER":20.9001,"MEAN_ANOMALY":339.2402,"EPHEMERIS_TYPE":0,"CLASSIFICATION_TYPE":"U","NORAD_CAT_ID":40021,"ELEMENT_SET_NO":999,"REV_AT_EPOCH":64328,"BSTAR":0.0011492,"MEAN_MOTION_DOT":0.00070258,"MEAN_MOTION_DDOT":0},{"OBJECT_NAME":"QB50P1","OBJECT_ID":"2014-033R","EPOCH":"2026-03-28T20:12:51.809184","MEAN_MOTION":15.16904902,"ECCENTRICITY":0.00102651,"INCLINATION":98.1001,"RA_OF_ASC_NODE":93.4257,"ARG_OF_PERICENTER":133.3453,"MEAN_ANOMALY":226.8635,"EPHEMERIS_TYPE":0,"CLASSIFICATION_TYPE":"U","NORAD_CAT_ID":40025,"ELEMENT_SET_NO":999,"REV_AT_EPOCH":64084,"BSTAR":0.00057652032,"MEAN_MOTION_DOT":0.00011309,"MEAN_MOTION_DDOT":0},{"OBJECT_NAME":"LILACSAT-2","OBJECT_ID":"2015-049K","EPOCH":"2026-03-29T03:51:59.516064","MEAN_MOTION":15.48744735,"ECCENTRICITY":0.0007847,"INCLINATION":97.4776,"RA_OF_ASC_NODE":122.0685,"ARG_OF_PERICENTER":168.7362,"MEAN_ANOMALY":191.4065,"EPHEMERIS_TYPE":0,"CLASSIFICATION_TYPE":"U","NORAD_CAT_ID":40908,"ELEMENT_SET_NO":999,"REV_AT_EPOCH":58335,"BSTAR":0.00038064,"MEAN_MOTION_DOT":0.00020366,"MEAN_MOTION_DDOT":0},{"OBJECT_NAME":"FOX-1A (AO-85)","OBJECT_ID":"2015-058D","EPOCH":"2026-03-29T04:26:52.981152","MEAN_MOTION":14.90493359,"ECCENTRICITY":0.0128424,"INCLINATION":64.7757,"RA_OF_ASC_NODE":167.5097,"ARG_OF_PERICENTER":88.0848,"MEAN_ANOMALY":273.4966,"EPHEMERIS_TYPE":0,"CLASSIFICATION_TYPE":"U","NORAD_CAT_ID":40967,"ELEMENT_SET_NO":999,"REV_AT_EPOCH":10164,"BSTAR":0.00030458,"MEAN_MOTION_DOT":3.313e-5,"MEAN_MOTION_DDOT":0},{"OBJECT_NAME":"CAS-2T & KS-1Q","OBJECT_ID":"2016-066G","EPOCH":"2026-03-29T04:06:11.992896","MEAN_MOTION":14.44521513,"ECCENTRICITY":0.0342605,"INCLINATION":98.3857,"RA_OF_ASC_NODE":164.8051,"ARG_OF_PERICENTER":12.5347,"MEAN_ANOMALY":348.4101,"EPHEMERIS_TYPE":0,"CLASSIFICATION_TYPE":"U","NORAD_CAT_ID":41847,"ELEMENT_SET_NO":999,"REV_AT_EPOCH":49324,"BSTAR":0.00018172,"MEAN_MOTION_DOT":1.233e-5,"MEAN_MOTION_DDOT":0},{"OBJECT_NAME":"RADFXSAT (FOX-1B)","OBJECT_ID":"2017-073E","EPOCH":"2026-03-29T01:31:52.586976","MEAN_MOTION":15.11259519,"ECCENTRICITY":0.0153117,"INCLINATION":97.483,"RA_OF_ASC_NODE":316.9538,"ARG_OF_PERICENTER":244.7829,"MEAN_ANOMALY":113.7462,"EPHEMERIS_TYPE":0,"CLASSIFICATION_TYPE":"U","NORAD_CAT_ID":43017,"ELEMENT_SET_NO":999,"REV_AT_EPOCH":45328,"BSTAR":0.00045237,"MEAN_MOTION_DOT":0.00010034,"MEAN_MOTION_DDOT":0},{"OBJECT_NAME":"DIWATA-2B","OBJECT_ID":"2018-084H","EPOCH":"2026-03-29T04:49:09.115680","MEAN_MOTION":15.00056761,"ECCENTRICITY":0.0013602,"INCLINATION":98.104,"RA_OF_ASC_NODE":281.0392,"ARG_OF_PERICENTER":68.9726,"MEAN_ANOMALY":291.295,"EPHEMERIS_TYPE":0,"CLASSIFICATION_TYPE":"U","NORAD_CAT_ID":43678,"ELEMENT_SET_NO":999,"REV_AT_EPOCH":40422,"BSTAR":0.00020006,"MEAN_MOTION_DOT":2.43e-5,"MEAN_MOTION_DDOT":0},{"OBJECT_NAME":"ES'HAIL 2","OBJECT_ID":"2018-090A","EPOCH":"2026-03-29T02:53:15.660096","MEAN_MOTION":1.00274427,"ECCENTRICITY":0.0001121,"INCLINATION":0.0173,"RA_OF_ASC_NODE":118.1117,"ARG_OF_PERICENTER":252.219,"MEAN_ANOMALY":245.3126,"EPHEMERIS_TYPE":0,"CLASSIFICATION_TYPE":"U","NORAD_CAT_ID":43700,"ELEMENT_SET_NO":999,"REV_AT_EPOCH":2687,"BSTAR":0,"MEAN_MOTION_DOT":1.25e-6,"MEAN_MOTION_DDOT":0},{"OBJECT_NAME":"FOX-1CLIFF (AO-95)","OBJECT_ID":"2018-099N","EPOCH":"2026-03-29T03:14:57.746976","MEAN_MOTION":15.24912936,"ECCENTRICITY":0.0007465,"INCLINATION":97.4473,"RA_OF_ASC_NODE":148.7517,"ARG_OF_PERICENTER":267.161,"MEAN_ANOMALY":92.8773,"EPHEMERIS_TYPE":0,"CLASSIFICATION_TYPE":"U","NORAD_CAT_ID":43770,"ELEMENT_SET_NO":999,"REV_AT_EPOCH":40101,"BSTAR":0.00056068,"MEAN_MOTION_DOT":0.00013906,"MEAN_MOTION_DDOT":0},{"OBJECT_NAME":"ITASAT","OBJECT_ID":"2018-099AE","EPOCH":"2026-03-29T02:10:37.914240","MEAN_MOTION":15.17979919,"ECCENTRICITY":0.0011212,"INCLINATION":97.4131,"RA_OF_ASC_NODE":141.2254,"ARG_OF_PERICENTER":271.3141,"MEAN_ANOMALY":88.6809,"EPHEMERIS_TYPE":0,"CLASSIFICATION_TYPE":"U","NORAD_CAT_ID":43786,"ELEMENT_SET_NO":999,"REV_AT_EPOCH":40075,"BSTAR":0.00045057,"MEAN_MOTION_DOT":9.107e-5,"MEAN_MOTION_DDOT":0},{"OBJECT_NAME":"JY1SAT (JO-97)","OBJECT_ID":"2018-099AX","EPOCH":"2026-03-29T04:01:20.112960","MEAN_MOTION":15.31028524,"ECCENTRICITY":0.0006247,"INCLINATION":97.4221,"RA_OF_ASC_NODE":150.8493,"ARG_OF_PERICENTER":180.6364,"MEAN_ANOMALY":179.487,"EPHEMERIS_TYPE":0,"CLASSIFICATION_TYPE":"U","NORAD_CAT_ID":43803,"ELEMENT_SET_NO":999,"REV_AT_EPOCH":40137,"BSTAR":0.00082839,"MEAN_MOTION_DOT":0.00024823,"MEAN_MOTION_DDOT":0},{"OBJECT_NAME":"UWE-4","OBJECT_ID":"2018-111E","EPOCH":"2026-03-28T18:29:45.153600","MEAN_MOTION":15.41240829,"ECCENTRICITY":0.00059379,"INCLINATION":97.585,"RA_OF_ASC_NODE":12.7684,"ARG_OF_PERICENTER":247.2202,"MEAN_ANOMALY":112.8417,"EPHEMERIS_TYPE":0,"CLASSIFICATION_TYPE":"U","NORAD_CAT_ID":43880,"ELEMENT_SET_NO":999,"REV_AT_EPOCH":39837,"BSTAR":0.00091752762,"MEAN_MOTION_DOT":0.00038209,"MEAN_MOTION_DDOT":0},{"OBJECT_NAME":"TIANYAN 01","OBJECT_ID":"2019-093C","EPOCH":"2026-03-29T05:00:03.318336","MEAN_MOTION":14.86379835,"ECCENTRICITY":0.0013481,"INCLINATION":97.7578,"RA_OF_ASC_NODE":162.3812,"ARG_OF_PERICENTER":356.3806,"MEAN_ANOMALY":3.731,"EPHEMERIS_TYPE":0,"CLASSIFICATION_TYPE":"U","NORAD_CAT_ID":44881,"ELEMENT_SET_NO":999,"REV_AT_EPOCH":33953,"BSTAR":7.9273e-5,"MEAN_MOTION_DOT":6.47e-6,"MEAN_MOTION_DDOT":0},{"OBJECT_NAME":"RS-44 & BREEZE-KM R/B","OBJECT_ID":"2019-096E","EPOCH":"2026-03-29T02:30:38.055168","MEAN_MOTION":12.79747751,"ECCENTRICITY":0.0217063,"INCLINATION":82.5244,"RA_OF_ASC_NODE":32.9132,"ARG_OF_PERICENTER":331.9292,"MEAN_ANOMALY":27.0239,"EPHEMERIS_TYPE":0,"CLASSIFICATION_TYPE":"U","NORAD_CAT_ID":44909,"ELEMENT_SET_NO":999,"REV_AT_EPOCH":29210,"BSTAR":-1.4518e-5,"MEAN_MOTION_DOT":6.0e-8,"MEAN_MOTION_DDOT":0},{"OBJECT_NAME":"SALSAT","OBJECT_ID":"2020-068K","EPOCH":"2026-03-28T23:41:11.718816","MEAN_MOTION":15.28549734,"ECCENTRICITY":0.0008782,"INCLINATION":97.8861,"RA_OF_ASC_NODE":86.2455,"ARG_OF_PERICENTER":214.9729,"MEAN_ANOMALY":145.0934,"EPHEMERIS_TYPE":0,"CLASSIFICATION_TYPE":"U","NORAD_CAT_ID":46495,"ELEMENT_SET_NO":999,"REV_AT_EPOCH":30310,"BSTAR":0.00036891,"MEAN_MOTION_DOT":0.00010179,"MEAN_MOTION_DDOT":0},{"OBJECT_NAME":"XW-3 (CAS-9)","OBJECT_ID":"2021-131B","EPOCH":"2026-03-29T05:17:17.727648","MEAN_MOTION":14.41274655,"ECCENTRICITY":0.0003748,"INCLINATION":98.4945,"RA_OF_ASC_NODE":181.0623,"ARG_OF_PERICENTER":356.1334,"MEAN_ANOMALY":3.9825,"EPHEMERIS_TYPE":0,"CLASSIFICATION_TYPE":"U","NORAD_CAT_ID":50466,"ELEMENT_SET_NO":999,"REV_AT_EPOCH":22359,"BSTAR":0.00016129,"MEAN_MOTION_DOT":4.77e-6,"MEAN_MOTION_DDOT":0}]
